      2.10          N: GNSS NAV DATA                        RINEX VERSION / TYPE
fic2rin                                 10/28/2020 00:17:32 PGM / RUN BY / DATE
                                                            END OF HEADER
10 20 10 27 16  0  0.0-4.901378415525e-04-9.322320693173e-12 0.000000000000e+00
    4.000000000000e+01-4.346875000000e+01 4.728768400756e-09 3.037127913277e+00
   -2.227723598480e-06 6.064605549909e-03 4.520639777184e-06 5.153666252136e+03
    2.304000000000e+05-7.450580596924e-08 1.355693745880e+00-8.381903171539e-08
    9.666223879538e-01 2.975625000000e+02-2.662442743987e+00-8.154268229431e-09
   -1.003613233091e-10 1.000000000000e+00 2.129000000000e+03 0.000000000000e+00
    2.400000000000e+00 0.000000000000e+00 2.328306436539e-09 4.000000000000e+01
    2.232000000000e+05 4.000000000000e+00
 8 20 10 27 16  0  0.0-5.294987931848e-05-1.364242052659e-12 0.000000000000e+00
    2.000000000000e+01-2.025000000000e+01 4.025167664390e-09 1.047402401177e+00
   -1.035630702972e-06 5.631905281916e-03 1.057796180248e-05 5.153747055054e+03
    2.304000000000e+05 8.195638656616e-08-7.518631319688e-01 9.126961231232e-08
    9.689548879461e-01 1.788125000000e+02-6.898246544229e-02-7.834612057325e-09
   -2.185805333280e-10 1.000000000000e+00 2.129000000000e+03 0.000000000000e+00
    2.400000000000e+00 0.000000000000e+00 5.122274160385e-09 2.000000000000e+01
    2.232000000000e+05 4.000000000000e+00
 7 20 10 27 16  0  0.0-4.021497443318e-04-7.844391802792e-12 0.000000000000e+00
    1.110000000000e+02 7.465625000000e+01 4.687695261324e-09-1.934311515290e+00
    3.719702363014e-06 1.422654045746e-02 7.564201951027e-06 5.153633682251e+03
    2.304000000000e+05 1.434236764908e-07-2.820728458411e+00-1.844018697739e-07
    9.528629514581e-01 2.287187500000e+02-2.361489890836e+00-7.962117368433e-09
    4.271606500985e-10 1.000000000000e+00 2.129000000000e+03 0.000000000000e+00
    2.400000000000e+00 0.000000000000e+00-1.117587089539e-08 1.110000000000e+02
    2.232000000000e+05 4.000000000000e+00
 9 20 10 27 16  0  0.0-3.058202564716e-04-5.002220859751e-12 0.000000000000e+00
    5.800000000000e+01-4.587500000000e+01 4.528045754138e-09 1.351137273937e+00
   -2.507120370865e-06 1.925284625031e-03 1.166574656963e-05 5.153636802673e+03
    2.304000000000e+05-1.490116119385e-08 2.389529758694e+00-2.980232238770e-08
    9.530420594443e-01 1.481562500000e+02 1.759881316361e+00-7.973189258193e-09
   -2.521533603424e-10 1.000000000000e+00 2.129000000000e+03 0.000000000000e+00
    2.400000000000e+00 0.000000000000e+00 1.396983861923e-09 5.800000000000e+01
    2.232000000000e+05 4.000000000000e+00
 6 20 10 27 16  0  0.0-3.356789238751e-04-2.046363078989e-12 0.000000000000e+00
    9.000000000000e+01 5.996875000000e+01 4.177674016892e-09-8.448095940992e-01
    2.959743142128e-06 1.899106660858e-03 7.674098014832e-06 5.153640312195e+03
    2.304000000000e+05-3.725290298462e-08 3.110285405014e-01-5.401670932770e-08
    9.817206007636e-01 2.448437500000e+02-1.156531117432e+00-7.964974630307e-09
    4.964492505326e-10 1.000000000000e+00 2.129000000000e+03 0.000000000000e+00
    2.400000000000e+00 0.000000000000e+00 4.190951585770e-09 9.000000000000e+01
    2.232000000000e+05 4.000000000000e+00
29 20 10 27 16  0  0.0-2.242880873382e-04-7.958078640513e-12 0.000000000000e+00
    4.000000000000e+01-1.731250000000e+01 3.653009305358e-09 9.442991299634e-01
   -8.549541234970e-07 1.527459360659e-03 1.033581793308e-05 5.153736072540e+03
    2.304000000000e+05 3.166496753693e-08-6.649586443909e-01-1.862645149231e-08
    9.852581414878e-01 1.928437500000e+02 2.269421091778e+00-7.644961300467e-09
   -7.143154683922e-11 1.000000000000e+00 2.129000000000e+03 0.000000000000e+00
    2.400000000000e+00 0.000000000000e+00-1.024454832077e-08 4.000000000000e+01
    2.232000000000e+05 4.000000000000e+00
27 20 10 27 16  0  0.0-4.279688000679e-04-8.526512829121e-12 0.000000000000e+00
    2.100000000000e+01-2.018750000000e+01 3.910162873979e-09 9.270315456935e-01
   -1.100823283195e-06 8.459664881229e-03 1.039355993271e-05 5.153677501678e+03
    2.304000000000e+05-5.960464477539e-08-7.363440698118e-01 8.568167686462e-08
    9.774550373943e-01 1.893125000000e+02 5.696205511195e-01-7.814254066476e-09
   -2.589393572922e-10 1.000000000000e+00 2.129000000000e+03 0.000000000000e+00
    2.400000000000e+00 0.000000000000e+00 1.862645149231e-09 2.100000000000e+01
    2.232000000000e+05 4.000000000000e+00
31 20 10 27 16  0  0.0-7.764762267470e-05-2.387423592154e-12 0.000000000000e+00
    4.500000000000e+01 7.109375000000e+01 4.690552523197e-09-2.291898996301e+00
    3.593042492867e-06 9.803732275032e-03 7.633119821548e-06 5.153682399750e+03
    2.304000000000e+05-3.166496753693e-08-2.804547414120e+00-1.247972249985e-07
    9.572384765277e-01 2.326875000000e+02 1.832903213147e-01-8.119266771480e-09
    3.528718413857e-10 1.000000000000e+00 2.129000000000e+03 0.000000000000e+00
    2.400000000000e+00 0.000000000000e+00-1.303851604462e-08 4.500000000000e+01
    2.232000000000e+05 4.000000000000e+00
19 20 10 27 16  0  0.0-8.620508015156e-05 5.002220859751e-12 0.000000000000e+00
    3.000000000000e+01-1.718750000000e+01 3.679081819954e-09-2.889930184552e+00
   -9.182840585709e-07 9.069990250282e-03 1.143291592598e-05 5.153606788635e+03
    2.304000000000e+05 8.754432201385e-08-6.315923561739e-01 6.705522537231e-08
    9.818692142225e-01 1.634687500000e+02 1.740209236048e+00-7.497812313978e-09
   -5.250218692682e-11 1.000000000000e+00 2.129000000000e+03 0.000000000000e+00
    2.400000000000e+00 0.000000000000e+00-1.536682248116e-08 3.000000000000e+01
    2.232000000000e+05 4.000000000000e+00
20 20 10 27 16  0  0.0 5.262484773993e-04-1.136868377216e-13 0.000000000000e+00
    1.900000000000e+01-2.806250000000e+01 5.503443526227e-09-1.777907757200e+00
   -1.467764377594e-06 5.786016699858e-03 3.837049007416e-06 5.153659864426e+03
    2.304000000000e+05-8.568167686462e-08 1.219720763751e+00-1.303851604462e-07
    9.352921452320e-01 2.949375000000e+02 2.740655637342e+00-8.696076512206e-09
    3.214419607765e-11 1.000000000000e+00 2.129000000000e+03 0.000000000000e+00
    2.400000000000e+00 0.000000000000e+00-8.381903171539e-09 1.900000000000e+01
    2.232000000000e+05 4.000000000000e+00
16 20 10 27 16  0  0.0-2.282010391355e-04-5.229594535194e-12 0.000000000000e+00
    6.800000000000e+01-2.250000000000e+01 4.408397913182e-09 1.815867837864e+00
   -1.244246959686e-06 1.165815291461e-02 5.159527063370e-06 5.153589450836e+03
    2.304000000000e+05-2.272427082062e-07-1.693447776474e+00 4.470348358154e-08
    9.761786355185e-01 2.928125000000e+02 6.282818735019e-01-8.166411592393e-09
   -3.503717372464e-10 1.000000000000e+00 2.129000000000e+03 0.000000000000e+00
    2.400000000000e+00 0.000000000000e+00-1.071020960808e-08 6.800000000000e+01
    2.232000000000e+05 4.000000000000e+00
30 20 10 27 16  0  0.0-3.250516019762e-04-6.821210263297e-12 0.000000000000e+00
    6.100000000000e+01 7.421875000000e+01 5.070211194648e-09-1.939370111921e+00
    3.753229975700e-06 4.762852564454e-03 7.556751370430e-06 5.153575607300e+03
    2.304000000000e+05 0.000000000000e+00-2.800382063565e+00-8.009374141693e-08
    9.381193324357e-01 2.213437500000e+02-2.814330301342e+00-8.309631843806e-09
    3.546576300567e-10 1.000000000000e+00 2.129000000000e+03 0.000000000000e+00
    2.400000000000e+00 0.000000000000e+00 3.725290298462e-09 6.100000000000e+01
    2.232000000000e+05 4.000000000000e+00
24 20 10 27 16  0  0.0-2.033589407802e-05-4.547473508865e-13 0.000000000000e+00
    6.000000000000e+01 6.668750000000e+01 5.115570226891e-09-9.369009850009e-01
    3.451481461525e-06 1.035689795390e-02 7.789582014084e-06 5.153632841110e+03
    2.304000000000e+05 1.844018697739e-07-2.895418642106e+00 1.341104507446e-07
    9.362231375202e-01 2.160625000000e+02 6.895551410251e-01-8.408564536178e-09
    2.082229590363e-10 1.000000000000e+00 2.129000000000e+03 0.000000000000e+00
    3.400000000000e+00 0.000000000000e+00 2.793967723846e-09 6.000000000000e+01
    2.232000000000e+05 4.000000000000e+00
22 20 10 27 16  0  0.0-7.379888556898e-04 4.888534022029e-12 0.000000000000e+00
    5.800000000000e+01-3.831250000000e+01 5.742739208139e-09-7.617918999190e-02
   -1.963227987289e-06 6.710768328048e-03 3.743916749954e-06 5.153692939758e+03
    2.304000000000e+05-5.401670932770e-08 1.266697171342e+00-4.097819328308e-08
    9.319677458203e-01 2.945937500000e+02-1.080737469259e+00-8.937872298257e-09
   -3.535861568541e-11 1.000000000000e+00 2.129000000000e+03 0.000000000000e+00
    2.400000000000e+00 0.000000000000e+00-1.816079020500e-08 5.800000000000e+01
    2.232000000000e+05 4.000000000000e+00
15 20 10 27 16  0  0.0-1.940783113241e-04 2.614797267597e-12 0.000000000000e+00
    5.100000000000e+01-5.087500000000e+01 5.330579182877e-09 3.212243334257e-03
   -2.468004822731e-06 1.296576962341e-02 9.721145033836e-06 5.153768898010e+03
    2.304000000000e+05-4.656612873077e-08 2.296058799471e+00 1.676380634308e-07
    9.285443478163e-01 1.742812500000e+02 9.391685036351e-01-8.566785412427e-09
   -3.014411276615e-10 1.000000000000e+00 2.129000000000e+03 0.000000000000e+00
    2.400000000000e+00 0.000000000000e+00-1.071020960808e-08 5.100000000000e+01
    2.232000000000e+05 4.000000000000e+00
11 20 10 27 16  0  0.0-1.252330839634e-04 1.057287590811e-11 0.000000000000e+00
    9.900000000000e+01 5.481250000000e+01 5.303435195078e-09-1.808064790825e+00
    3.036111593246e-06 1.571817474905e-02 1.004710793495e-05 5.153731779099e+03
    2.304000000000e+05-2.179294824600e-07-1.649554154209e-01 3.110617399216e-07
    9.139939407735e-01 1.650312500000e+02 2.061462977053e+00-8.477495978878e-09
    3.021554431299e-10 1.000000000000e+00 2.129000000000e+03 0.000000000000e+00
    3.400000000000e+00 0.000000000000e+00-1.257285475731e-08 9.900000000000e+01
    2.232000000000e+05 4.000000000000e+00
